H1 CPF  1  DGF 2022 04 04 12  5942 larets     NONE      
H2   304206 5557    27944 2022 03 30 00 00 00 2022 04 06 00 00 00    30 1 1  0 0 0
H5  0.0650
H9
10 0 59671  36000.000000  0       -575537.938       1028496.924       6949746.356
10 0 59671  36030.000000  0       -461217.407       1224129.446       6926323.885
10 0 59671  36060.000000  0       -345576.928       1418017.236       6895824.383
10 0 59671  36090.000000  0       -228741.824       1609957.942       6858278.085
10 0 59671  36120.000000  0       -110839.540       1799751.681       6813722.400
10 0 59671  36150.000000  0          8000.500       1987201.252       6762201.884
10 0 59671  36180.000000  0        127647.030       2172112.343       6703768.192
10 0 59671  36210.000000  0        247967.085       2354293.729       6638480.035
10 0 59671  36240.000000  0        368826.153       2533557.475       6566403.131
10 0 59671  36270.000000  0        490088.321       2709719.138       6487610.140
10 0 59671  36300.000000  0        611616.427       2882597.956       6402180.602
10 0 59671  36330.000000  0        733272.218       3052017.041       6310200.857
10 0 59671  36360.000000  0        854916.507       3217803.568       6211763.968
10 0 59671  36390.000000  0        976409.328       3379788.954       6106969.630
10 0 59671  36420.000000  0       1097610.102       3537809.035       5995924.076
10 0 59671  36450.000000  0       1218377.794       3691704.242       5878739.972
10 0 59671  36480.000000  0       1338571.085       3841319.765       5755536.313
10 0 59671  36510.000000  0       1458048.532       3986505.717       5626438.306
10 0 59671  36540.000000  0       1576668.736       4127117.297       5491577.251
10 0 59671  36570.000000  0       1694290.518       4263014.939       5351090.409
10 0 59671  36600.000000  0       1810773.080       4394064.463       5205120.867
10 0 59671  36630.000000  0       1925976.184       4520137.212       5053817.392
10 0 59671  36660.000000  0       2039760.316       4641110.190       4897334.286
10 0 59671  36690.000000  0       2151986.858       4756866.181       4735831.222
10 0 59671  36720.000000  0       2262518.255       4867293.875       4569473.095
10 0 59671  36750.000000  0       2371218.189       4972287.980       4398429.850
10 0 59671  36780.000000  0       2477951.746       5071749.331       4222876.310
10 0 59671  36810.000000  0       2582585.585       5165584.992       4042992.005
10 0 59671  36840.000000  0       2684988.104       5253708.349       3858960.986
10 0 59671  36870.000000  0       2785029.609       5336039.205       3670971.647
10 0 59671  36900.000000  0       2882582.487       5412503.872       3479216.522
10 0 59671  36930.000000  0       2977521.368       5483035.239       3283892.082
10 0 59671  36960.000000  0       3069723.285       5547572.840       3085198.525
10 0 59671  36990.000000  0       3159067.842       5606062.913       2883339.563
10 0 59671  37020.000000  0       3245437.362       5658458.439       2678522.206
10 0 59671  37050.000000  0       3328717.048       5704719.179       2470956.541
10 0 59671  37080.000000  0       3408795.126       5744811.710       2260855.513
10 0 59671  37110.000000  0       3485562.994       5778709.446       2048434.704
10 0 59671  37140.000000  0       3558915.371       5806392.655       1833912.104
10 0 59671  37170.000000  0       3628750.428       5827848.472       1617507.878
10 0 59671  37200.000000  0       3694969.933       5843070.897       1399444.133
10 0 59671  37230.000000  0       3757479.381       5852060.792       1179944.681
10 0 59671  37260.000000  0       3816188.124       5854825.859        959234.795
10 0 59671  37290.000000  0       3871009.498       5851380.616        737540.966
10 0 59671  37320.000000  0       3921860.944       5841746.357        515090.669
10 0 59671  37350.000000  0       3968664.117       5825951.114        292112.109
10 0 59671  37380.000000  0       4011345.000       5804029.601         68833.988
10 0 59671  37410.000000  0       4049834.008       5776023.160       -154514.743
10 0 59671  37440.000000  0       4084066.082       5741979.695       -377705.128
10 0 59671  37470.000000  0       4113980.787       5701953.596       -600508.447
10 0 59671  37500.000000  0       4139522.401       5656005.663       -822696.458
10 0 59671  37530.000000  0       4160640.000       5604203.016      -1044041.643
10 0 59671  37560.000000  0       4177287.531       5546618.994      -1264317.450
10 0 59671  37590.000000  0       4189423.884       5483333.056      -1483298.533
10 0 59671  37620.000000  0       4197012.956       5414430.667      -1700760.987
10 0 59671  37650.000000  0       4200023.710       5340003.181      -1916482.584
10 0 59671  37680.000000  0       4198430.225       5260147.718      -2130243.012
10 0 59671  37710.000000  0       4192211.744       5174967.035      -2341824.097
10 0 59671  37740.000000  0       4181352.713       5084569.387      -2551010.040
10 0 59671  37770.000000  0       4165842.811       4989068.383      -2757587.637
10 0 59671  37800.000000  0       4145676.976       4888582.838      -2961346.499
10 0 59671  37830.000000  0       4120855.427       4783236.615      -3162079.273
10 0 59671  37860.000000  0       4091383.677       4673158.471      -3359581.847
10 0 59671  37890.000000  0       4057272.535       4558481.885      -3553653.561
10 0 59671  37920.000000  0       4018538.114       4439344.896      -3744097.407
10 0 59671  37950.000000  0       3975201.823       4315889.928      -3930720.226
10 0 59671  37980.000000  0       3927290.359       4188263.615      -4113332.905
10 0 59671  38010.000000  0       3874835.687       4056616.619      -4291750.563
10 0 59671  38040.000000  0       3817875.023       3921103.447      -4465792.740
10 0 59671  38070.000000  0       3756450.795       3781882.260      -4635283.569
10 0 59671  38100.000000  0       3690610.616       3639114.683      -4800051.953
10 0 59671  38130.000000  0       3620407.234       3492965.613      -4959931.732
10 0 59671  38160.000000  0       3545898.489       3343603.018      -5114761.837
10 0 59671  38190.000000  0       3467147.260       3191197.742      -5264386.450
10 0 59671  38220.000000  0       3384221.400       3035923.303      -5408655.150
10 0 59671  38250.000000  0       3297193.678       2877955.693      -5547423.053
10 0 59671  38280.000000  0       3206141.706       2717473.173      -5680550.948
10 0 59671  38310.000000  0       3111147.871       2554656.070      -5807905.428
10 0 59671  38340.000000  0       3012299.246       2389686.573      -5929359.017
10 0 59671  38370.000000  0       2909687.512       2222748.523      -6044790.285
10 0 59671  38400.000000  0       2803408.859       2054027.205      -6154083.953
10 0 59671  38430.000000  0       2693563.896       1883709.147      -6257131.003
10 0 59671  38460.000000  0       2580257.552       1711981.909      -6353828.765
10 0 59671  38490.000000  0       2463598.970       1539033.884      -6444081.017
10 0 59671  38520.000000  0       2343701.400       1365054.084      -6527798.063
10 0 59671  38550.000000  0       2220682.088       1190231.942      -6604896.812
10 0 59671  38580.000000  0       2094662.159       1014757.107      -6675300.849
10 0 59671  38610.000000  0       1965766.501        838819.244      -6738940.502
10 0 59671  38640.000000  0       1834123.638        662607.830      -6795752.905
10 0 59671  38670.000000  0       1699865.602        486311.959      -6845682.051
10 0 59671  38700.000000  0       1563127.801        310120.134      -6888678.845
10 0 59671  38730.000000  0       1424048.878        134220.078      -6924701.145
10 0 59671  38760.000000  0       1282770.569        -41201.473      -6953713.790
10 0 59671  38790.000000  0       1139437.562       -215958.958      -6975688.628
10 0 59671  38820.000000  0        994197.347       -389868.183      -6990604.534
10 0 59671  38850.000000  0        847200.071       -562746.508      -6998447.426
10 0 59671  38880.000000  0        698598.382       -734413.036      -6999210.271
10 0 59671  38910.000000  0        548547.280       -904688.791      -6992893.088
10 0 59671  38940.000000  0        397203.954      -1073396.903      -6979502.948
10 0 59671  38970.000000  0        244727.622      -1240362.780      -6959053.955
10 0 59671  39000.000000  0         91279.375      -1405414.288      -6931567.244
10 0 59671  39030.000000  0        -62977.995      -1568381.916      -6897070.953
10 0 59671  39060.000000  0       -217880.163      -1729098.951      -6855600.202
10 0 59671  39090.000000  0       -373261.443      -1887401.646      -6807197.059
10 0 59671  39120.000000  0       -528954.960      -2043129.380      -6751910.500
10 0 59671  39150.000000  0       -684792.826      -2196124.823      -6689796.359
10 0 59671  39180.000000  0       -840606.316      -2346234.090      -6620917.278
10 0 59671  39210.000000  0       -996226.047      -2493306.891      -6545342.643
10 0 59671  39240.000000  0      -1151482.155      -2637196.680      -6463148.524
10 0 59671  39270.000000  0      -1306204.476      -2777760.796      -6374417.597
10 0 59671  39300.000000  0      -1460222.725      -2914860.604      -6279239.079
10 0 59671  39330.000000  0      -1613366.683      -3048361.627      -6177708.636
10 0 59671  39360.000000  0      -1765466.378      -3178133.684      -6069928.304
10 0 59671  39390.000000  0      -1916352.270      -3304051.010      -5956006.390
10 0 59671  39420.000000  0      -2065855.439      -3425992.381      -5836057.377
10 0 59671  39450.000000  0      -2213807.767      -3543841.236      -5710201.818
10 0 59671  39480.000000  0      -2360042.131      -3657485.789      -5578566.223
10 0 59671  39510.000000  0      -2504392.590      -3766819.139      -5441282.944
10 0 59671  39540.000000  0      -2646694.570      -3871739.374      -5298490.046
10 0 59671  39570.000000  0      -2786785.053      -3972149.667      -5150331.177
99
